0 FENGYUN 1C DEB
1 30761U 99025ATX 13282.50679198  .00001169  00000-0  51596-3 0  5535
2 30761 098.9611 007.4592 0100853 197.9684 285.0027 14.22620974343372
0 FENGYUN 1C DEB
1 30761U 99025ATX 13285.52051081  .00001068  00000-0  47288-3 0  5558
2 30761 098.9614 010.5241 0100983 189.3659 239.5283 14.22627080343803
0 FENGYUN 1C DEB
1 30761U 99025ATX 13286.73243012  .00001314  00000-0  57698-3 0  5560
2 30761 098.9614 011.7566 0101022 185.9171 326.2920 14.22629241343973
0 FENGYUN 1C DEB
1 30761U 99025ATX 13288.18607675  .00001791  00000-0  77932-3 0  5573
2 30761 098.9612 013.2352 0101055 181.7882 211.0507 14.22636675344185
0 FENGYUN 1C DEB
1 30761U 99025ATX 13289.75152383  .00001471  00000-0  64340-3 0  5583
2 30761 098.9609 014.8273 0101107 177.3306 308.4388 14.22641143344409
0 FENGYUN 1C DEB
1 30761U 99025ATX 13291.20958013  .00001452  00000-0  63545-3 0  5596
2 30761 098.9606 016.3103 0101136 173.1900 215.8430 14.22645755344616
0 FENGYUN 1C DEB
1 30761U 99025ATX 13292.71084258  .00001455  00000-0  63647-3 0  5602
2 30761 098.9605 017.8371 0101168 168.9227 344.5551 14.22650523344823
0 FENGYUN 1C DEB
1 30761U 99025ATX 13294.17098811  .00001600  00000-0  69805-3 0  5619
2 30761 098.9604 019.3220 0101175 164.7706 262.7163 14.22654901345034
0 FENGYUN 1C DEB
1 30761U 99025ATX 13295.22378497  .00001702  00000-0  74099-3 0  5622
2 30761 098.9604 020.3926 0101191 161.7737 254.6512 14.22658451345186
